[
  { "name": "Cuba", "dial_code": "+53", "code": "CU" },
  { "name": "México", "dial_code": "+52", "code": "MX" },
  { "name": "Estados Unidos", "dial_code": "+1", "code": "US" },
  { "name": "España", "dial_code": "+34", "code": "ES" },
  { "name": "Colombia", "dial_code": "+57", "code": "CO" },
  { "name": "Argentina", "dial_code": "+54", "code": "AR" },
  { "name": "Venezuela", "dial_code": "+58", "code": "VE" },
  { "name": "Perú", "dial_code": "+51", "code": "PE" },
  { "name": "Chile", "dial_code": "+56", "code": "CL" },
  { "name": "Ecuador", "dial_code": "+593", "code": "EC" },
  { "name": "República Dominicana", "dial_code": "+1", "code": "DO" },
  { "name": "Uruguay", "dial_code": "+598", "code": "UY" },
  { "name": "Bolivia", "dial_code": "+591", "code": "BO" },
  { "name": "Paraguay", "dial_code": "+595", "code": "PY" },
  { "name": "Brasil", "dial_code": "+55", "code": "BR" },
  { "name": "Panamá", "dial_code": "+507", "code": "PA" },
  { "name": "Costa Rica", "dial_code": "+506", "code": "CR" },
  { "name": "El Salvador", "dial_code": "+503", "code": "SV" },
  { "name": "Guatemala", "dial_code": "+502", "code": "GT" },
  { "name": "Honduras", "dial_code": "+504", "code": "HN" },
  { "name": "Nicaragua", "dial_code": "+505", "code": "NI" },
  { "name": "Puerto Rico", "dial_code": "+1", "code": "PR" },
  { "name": "Canadá", "dial_code": "+1", "code": "CA" }
]
